OBJECT_NAME,OBJECT_ID,EPOCH,MEAN_MOTION,ECCENTRICITY,INCLINATION,RA_OF_ASC_NODE,ARG_OF_PERICENTER,MEAN_ANOMALY,EPHEMERIS_TYPE,CLASSIFICATION_TYPE,NORAD_CAT_ID,ELEMENT_SET_NO,REV_AT_EPOCH,BSTAR,MEAN_MOTION_DOT,MEAN_MOTION_DDOT
STARLINK-37687,2026-123R,2026-06-19T06:00:02.000160,15.80884444,.0001199,53.1580,230.9272,84.3167,129.9515,0,U,69368,999,348,.26469023E-4,.453E-4,0
STARLINK-37631,2026-123S,2026-06-19T06:00:02.000160,15.80971492,.00010067,53.1579,230.9366,111.7538,97.9881,0,U,69369,999,353,-.75325982E-3,-.147525E-2,0
STARLINK-37673,2026-123T,2026-06-19T06:37:25.593024,15.80952591,.00011819,53.1573,230.8004,91.8987,268.2171,0,U,69370,999,237,.10517764E-2,.212864E-2,0
STARLINK-37645,2026-123U,2026-06-19T06:40:08.180544,15.80961404,.00011571,53.1572,230.8145,82.7227,277.3927,0,U,69371,999,237,.10926621E-2,.221479E-2,0
STARLINK-37688,2026-123V,2026-06-19T06:36:25.551936,15.80961590,.00013387,53.1568,230.7949,84.5013,275.6163,0,U,69372,999,237,.12004631E-2,.244045E-2,0
STARLINK-37685,2026-123W,2026-06-19T05:04:39.450144,15.80975104,.00010795,53.1572,231.1086,92.5053,267.6093,0,U,69373,999,236,.12314222E-2,.250709E-2,0
STARLINK-37632,2026-123X,2026-06-19T05:03:35.625600,15.80968837,.0000982,53.1571,231.1034,87.6844,272.4291,0,U,69374,999,236,.12528323E-2,.25514E-2,0
STARLINK-37454,2026-123Y,2026-06-19T06:33:03.045024,15.80948536,.00011425,53.1571,230.7785,75.7121,284.4028,0,U,69375,999,237,.10446399E-2,.211338E-2,0
STARLINK-37485,2026-123Z,2026-06-19T06:31:59.242944,15.80948811,.0001208,53.1571,230.7734,69.2000,290.9152,0,U,69376,999,237,.97708401E-3,.197303E-2,0
STARLINK-37439,2026-123AA,2026-06-19T06:21:44.184672,15.80946236,.00011051,53.1570,230.7247,78.9937,281.1210,0,U,69377,999,237,.10027602E-2,.202608E-2,0
STARLINK-37376,2026-123AB,2026-06-19T06:00:02.000160,15.75286506,.00011761,53.1594,230.8866,85.3374,147.1986,0,U,69378,999,362,-.61568284E-3,-.94167E-3,0
STARLINK-37383,2026-123AC,2026-06-19T06:16:39.122688,15.80939754,.00011208,53.1568,230.6996,84.2841,275.8310,0,U,69379,999,237,.10102727E-2,.204106E-2,0
STARLINK-37411,2026-123AD,2026-06-19T06:23:41.517600,15.80936794,.00012353,53.1570,230.7330,92.2317,267.8847,0,U,69380,999,237,.90598974E-3,.182478E-2,0
STARLINK-37427,2026-123AE,2026-06-19T06:17:46.968288,15.80954097,.0001151,53.1569,230.7051,80.0519,280.0634,0,U,69381,999,237,.10605581E-2,.214709E-2,0
QIANFAN-165,2026-124A,2026-06-19T05:39:13.262688,14.16012593,.00030644,88.9984,1.8087,115.5666,244.5839,0,U,69382,999,210,.24002551E-4,.62E-6,0
QIANFAN-166,2026-124B,2026-06-19T07:12:18.594144,14.17059760,.00027241,88.9984,1.7998,106.3607,253.7882,0,U,69383,999,211,.43955001E-4,.103E-5,0
QIANFAN-167,2026-124C,2026-06-19T07:13:42.631968,14.16526190,.00021461,88.9983,1.7997,153.1048,207.0251,0,U,69384,999,211,.21982986E-4,.58E-6,0
QIANFAN-168,2026-124D,2026-06-19T05:23:50.079552,14.17873117,.00032469,88.9983,1.8070,128.3212,231.8269,0,U,69385,999,210,.34486599E-4,.85E-6,0
QIANFAN-169,2026-124E,2026-06-19T05:19:33.476736,14.18286694,.00033303,88.9983,1.8065,146.5225,213.6175,0,U,69386,999,210,.35584012E-4,.88E-6,0
QIANFAN-170,2026-124F,2026-06-19T06:55:29.855136,14.19183702,.00031938,88.9983,1.7978,122.8489,237.3008,0,U,69387,999,211,.35253546E-4,.88E-6,0
QIANFAN-171,2026-124G,2026-06-19T06:49:22.489248,14.20068128,.00021992,88.9982,1.7971,171.1710,188.9520,0,U,69388,999,211,.17265676E-3,.382E-5,0
QIANFAN-172,2026-124H,2026-06-19T06:51:55.775808,14.19638339,.00025521,88.9983,1.7974,146.8365,213.2986,0,U,69389,999,211,.27034535E-4,.71E-6,0
QIANFAN-173,2026-124J,2026-06-19T06:46:33.343104,14.20509770,.00028899,88.9983,1.7969,137.3210,222.8205,0,U,69390,999,211,.27984197E-4,.75E-6,0
QIANFAN-174,2026-124K,2026-06-19T05:00:00.657216,14.20878172,.00030334,88.9983,1.8043,145.1763,214.9626,0,U,69391,999,210,.40002592E-4,.101E-5,0
QIANFAN-175,2026-124L,2026-06-19T06:39:57.720096,14.21339623,.00035195,88.9983,1.7962,163.3625,196.7682,0,U,69392,999,211,.24785234E-4,.69E-6,0
QIANFAN-176,2026-124M,2026-06-19T06:36:37.642752,14.21840974,.00024573,88.9983,1.7958,164.6575,195.4691,0,U,69393,999,211,.332999E-4,.88E-6,0
QIANFAN-177,2026-124N,2026-06-19T06:32:10.201056,14.22730376,.00037564,88.9982,1.7954,139.8264,220.3206,0,U,69394,999,211,.23946776E-4,.68E-6,0
QIANFAN-178,2026-124P,2026-06-19T06:34:02.291232,14.22274216,.00029939,88.9983,1.7954,148.6274,211.5096,0,U,69395,999,211,.11559258E-3,.271E-5,0
QIANFAN-179,2026-124Q,2026-06-19T06:29:22.862400,14.23097011,.00030087,88.9983,1.7950,143.9192,216.2203,0,U,69396,999,211,.24147726E-4,.69E-6,0
QIANFAN-180,2026-124R,2026-06-19T06:27:45.434304,14.23618556,.00031889,88.9982,1.7950,156.9383,203.1953,0,U,69397,999,211,.23896807E-4,.69E-6,0
