
QIANFAN-165
1 69382U 26124A   26170.23557017  .00000062  00000+0  24003-4 0  9999
2 69382  88.9984   1.8087 0003064 115.5666 244.5839 14.16012593  2103

QIANFAN-166
1 69383U 26124B   26170.30021521  .00000103  00000+0  43955-4 0  9997
2 69383  88.9984   1.7998 0002724 106.3607 253.7882 14.17059760  2118

QIANFAN-167
1 69384U 26124C   26170.30118787  .00000058  00000+0  21983-4 0  9995
2 69384  88.9983   1.7997 0002146 153.1048 207.0251 14.16526190  2111

QIANFAN-168
1 69385U 26124D   26170.22488518  .00000085  00000+0  34487-4 0  9992
2 69385  88.9983   1.8070 0003246 128.3212 231.8269 14.17873117  2102

QIANFAN-169
1 69386U 26124E   26170.22191524  .00000088  00000+0  35584-4 0  9993
2 69386  88.9983   1.8065 0003330 146.5225 213.6175 14.18286694  2100

QIANFAN-170
1 69387U 26124F   26170.28853999  .00000088  00000+0  35254-4 0  9995
2 69387  88.9983   1.7978 0003193 122.8489 237.3008 14.19183702  2115

QIANFAN-171
1 69388U 26124G   26170.28428807  .00000382  00000+0  17266-3 0  9991
2 69388  88.9982   1.7971 0002199 171.1710 188.9520 14.20068128  2113

QIANFAN-172
1 69389U 26124H   26170.28606222  .00000071  00000+0  27035-4 0  9992
2 69389  88.9983   1.7974 0002552 146.8365 213.2986 14.19638339  2119

QIANFAN-173
1 69390U 26124J   26170.28233036  .00000075  00000+0  27984-4 0  9990
2 69390  88.9983   1.7969 0002889 137.3210 222.8205 14.20509770  2110

QIANFAN-174
1 69391U 26124K   26170.20834094  .00000101  00000+0  40003-4 0  9991
2 69391  88.9983   1.8043 0003033 145.1763 214.9626 14.20878172  2100

QIANFAN-175
1 69392U 26124L   26170.27775139  .00000069  00000+0  24785-4 0  9995
2 69392  88.9983   1.7962 0003519 163.3625 196.7682 14.21339623  2112

QIANFAN-176
1 69393U 26124M   26170.27543568  .00000088  00000+0  33300-4 0  9999
2 69393  88.9983   1.7958 0002457 164.6575 195.4691 14.21840974  2118

QIANFAN-177
1 69394U 26124N   26170.27234029  .00000068  00000+0  23947-4 0  9993
2 69394  88.9982   1.7954 0003756 139.8264 220.3206 14.22730376  2111

QIANFAN-178
1 69395U 26124P   26170.27363763  .00000271  00000+0  11559-3 0  9993
2 69395  88.9983   1.7954 0002993 148.6274 211.5096 14.22274216  2119

QIANFAN-179
1 69396U 26124Q   26170.27040350  .00000069  00000+0  24148-4 0  9992
2 69396  88.9983   1.7950 0003008 143.9192 216.2203 14.23097011  2110

QIANFAN-180
1 69397U 26124R   26170.26927586  .00000069  00000+0  23897-4 0  9997
2 69397  88.9982   1.7950 0003188 156.9383 203.1953 14.23618556  2115

STARLINK-37376
1 69378U 26123AB  26170.25002315 -.00094167  00000+0 -61568-3 0  9998
2 69378  53.1594 230.8866 0001176  85.3374 147.1986 15.75286506  3622

STARLINK-37383
1 69379U 26123AC  26170.26156392  .00204106  00000+0  10103-2 0  9997
2 69379  53.1568 230.6996 0001120  84.2841 275.8310 15.80939754  2379

STARLINK-37411
1 69380U 26123AD  26170.26645275  .00182478  00000+0  90599-3 0  9997
2 69380  53.1570 230.7330 0001235  92.2317 267.8847 15.80936794  2378

STARLINK-37427
1 69381U 26123AE  26170.26234917  .00214709  00000+0  10606-2 0  9998
2 69381  53.1569 230.7051 0001151  80.0519 280.0634 15.80954097  2370

STARLINK-37439
1 69377U 26123AA  26170.26509473  .00202608  00000+0  10028-2 0  9998
2 69377  53.1570 230.7247 0001105  78.9937 281.1210 15.80946236  2371

STARLINK-37454
1 69375U 26123Y   26170.27295191  .00211338  00000+0  10446-2 0  9990
2 69375  53.1571 230.7785 0001142  75.7121 284.4028 15.80948536  2376

STARLINK-37485
1 69376U 26123Z   26170.27221346  .00197303  00000+0  97708-3 0  9994
2 69376  53.1571 230.7734 0001208  69.2000 290.9152 15.80948811  2374

STARLINK-37631
1 69369U 26123S   26170.25002315 -.00147525  00000+0 -75326-3 0  9992
2 69369  53.1579 230.9366 0001006 111.7538  97.9881 15.80971492  3536

STARLINK-37632
1 69374U 26123X   26170.21082900  .00255140  00000+0  12528-2 0  9997
2 69374  53.1571 231.1034 0000982  87.6844 272.4291 15.80968837  2366

STARLINK-37645
1 69371U 26123U   26170.27787246  .00221479  00000+0  10927-2 0  9994
2 69371  53.1572 230.8145 0001157  82.7227 277.3927 15.80961404  2373

STARLINK-37673
1 69370U 26123T   26170.27599066  .00212864  00000+0  10518-2 0  9998
2 69370  53.1573 230.8004 0001181  91.8987 268.2171 15.80952591  2375

STARLINK-37685
1 69373U 26123W   26170.21156771  .00250709  00000+0  12314-2 0  9993
2 69373  53.1572 231.1086 0001079  92.5053 267.6093 15.80975104  2369

STARLINK-37687
1 69368U 26123R   26170.25002315  .00004530  00000+0  26469-4 0  9992
2 69368  53.1580 230.9272 0001199  84.3167 129.9515 15.80884444  3483

STARLINK-37688
1 69372U 26123V   26170.27529574  .00244045  00000+0  12005-2 0  9996
2 69372  53.1568 230.7949 0001338  84.5013 275.6163 15.80961590  2373
